{
  "norad_id": 26998,
  "name": "TIMED",
  "history": [
    {
      "epoch": "2026-03-28T22:01:28.737408",
      "apogee_km": 584.036984620725,
      "perigee_km": 580.1773900139733,
      "latitude_deg": 57.98500997745501,
      "longitude_deg": -152.10140287992544,
      "semi_major_axis_km": 6960.244187317348,
      "eccentricity": 0.00027726,
      "inclination_deg": 74.0689,
      "raan_deg": 36.6163,
      "arg_perigee_deg": 250.961,
      "mean_anomaly_deg": 109.1274,
      "mean_motion_rev_day": 14.95085562
    },
    {
      "epoch": "2026-03-29T04:26:54.267648",
      "apogee_km": 584.0266674739132,
      "perigee_km": 580.1734802298297,
      "latitude_deg": -66.059244573277,
      "longitude_deg": -126.40636928007007,
      "semi_major_axis_km": 6960.237073851871,
      "eccentricity": 0.0002768,
      "inclination_deg": 74.069,
      "raan_deg": 36.0776,
      "arg_perigee_deg": 250.6198,
      "mean_anomaly_deg": 109.4688,
      "mean_motion_rev_day": 14.95087854
    }
  ]
}